NORAD_CAT_ID,OBJECT_NAME,OBJECT_TYPE,EPOCH,MEAN_MOTION,ECCENTRICITY,INCLINATION,RA_OF_ASC_NODE,ARG_OF_PERICENTER,MEAN_ANOMALY,BSTAR,MEAN_MOTION_DOT,MEAN_MOTION_DDOT,TLE_LINE0,TLE_LINE1,TLE_LINE2,SEMIMAJOR_AXIS,PERIOD,APOGEE,PERIGEE,DECAYED
55407.0,STARLINK-5019,PAYLOAD,2024-05-20 13:44:44,14.98337567,0.000325,70.0008,283.8902,277.0094,83.0695,0.00016819,1.915e-05,0.0,0 STARLINK-5019,1 55407U 23014S   24141.57273884  .00001915  00000-0  16819-3 0  9991,2 55407  70.0008 283.8902 0003250 277.0094  83.0695 14.98337567 73474,6950.169,96.107,574.293,569.776,0.0
55407.0,STARLINK-5019,PAYLOAD,2024-05-20 18:33:08,14.98345002,0.0003019,70.0006,283.3845,269.1088,90.9725,0.00033883,3.954e-05,0.0,0 STARLINK-5019,1 55407U 23014S   24141.77301460  .00003954  00000-0  33883-3 0  9990,2 55407  70.0006 283.3845 0003019 269.1088  90.9725 14.98345002 72564,6950.146,96.106,574.11,569.913,0.0
55407.0,STARLINK-5019,PAYLOAD,2024-05-21 12:10:37,14.98329061,0.0002452,70.0028,281.5356,243.3684,116.7224,0.00013398,1.506e-05,0.0,0 STARLINK-5019,1 55407U 23014S   24142.50738003  .00001506  00000-0  13398-3 0  9999,2 55407  70.0028 281.5356 0002452 243.3684 116.7224 14.98329061 72671,6950.196,96.107,573.765,570.357,0.0
55407.0,STARLINK-5019,PAYLOAD,2024-05-21 13:46:45,14.98326924,0.0002464,70.0024,281.3671,248.2984,111.7913,0.00017234,1.964e-05,0.0,0 STARLINK-5019,1 55407U 23014S   24142.57414182  .00001964  00000-0  17234-3 0  9996,2 55407  70.0024 281.3671 0002464 248.2984 111.7913 14.98326924 73626,6950.202,96.107,573.78,570.355,0.0
55407.0,STARLINK-5019,PAYLOAD,2024-05-21 18:35:10,14.98323072,0.0002514,70.0006,280.8615,258.6781,101.4095,0.00017805,2.032e-05,0.0,0 STARLINK-5019,1 55407U 23014S   24142.77442546  .00002032  00000-0  17805-3 0  9994,2 55407  70.0006 280.8615 0002514 258.6781 101.4095 14.98323072 73655,6950.214,96.107,573.827,570.332,0.0
55407.0,STARLINK-5019,PAYLOAD,2024-05-22 12:12:38,14.98336773,0.0002647,70.0008,279.0101,254.5034,105.5833,6.7726e-05,7.15e-06,0.0,0 STARLINK-5019,1 55407U 23014S   24143.50877724  .00000715  00000-0  67726-4 0  9990,2 55407  70.0008 279.0101 0002647 254.5034 105.5833 14.98336773 72825,6950.172,96.107,573.877,570.197,0.0
55407.0,STARLINK-5019,PAYLOAD,2024-05-23 12:14:39,14.98327531,0.0002702,69.9987,276.4789,272.2224,87.8626,0.00013177,1.479e-05,0.0,0 STARLINK-5019,1 55407U 23014S   24144.51018022  .00001479  00000-0  13177-3 0  9998,2 55407  69.9987 276.4789 0002702 272.2224  87.8626 14.98327531 72971,6950.201,96.107,573.943,570.188,0.0
55407.0,STARLINK-5019,PAYLOAD,2024-05-23 13:50:47,14.98324182,0.0002622,69.9995,276.3123,258.4264,101.6601,0.00010869,1.204e-05,0.0,0 STARLINK-5019,1 55407U 23014S   24144.57694256  .00001204  00000-0  10869-3 0  9994,2 55407  69.9995 276.3123 0002622 258.4264 101.6601 14.98324182 73925,6950.211,96.107,573.898,570.254,0.0
55407.0,STARLINK-5019,PAYLOAD,2024-05-23 18:39:11,14.98331267,0.0002921,70.0001,275.8104,267.3781,92.7044,9.8311e-05,1.08e-05,0.0,0 STARLINK-5019,1 55407U 23014S   24144.77721843  .00001080  00000-0  98311-4 0  9990,2 55407  70.0001 275.8104 0002921 267.3781  92.7044 14.98331267 73950,6950.189,96.107,574.084,570.024,0.0
55407.0,STARLINK-5019,PAYLOAD,2024-05-24 12:16:39,14.98338544,0.0002971,70.0,273.9575,268.9315,91.1504,8.6307e-05,9.37e-06,0.0,0 STARLINK-5019,1 55407U 23014S   24145.51157285  .00000937  00000-0  86307-4 0  9998,2 55407  70.0000 273.9575 0002971 268.9315  91.1504 14.98338544 73123,6950.166,96.106,574.096,569.967,0.0
55407.0,STARLINK-5019,PAYLOAD,2024-05-24 13:52:47,14.98338792,0.0002975,69.9999,273.789,268.8851,91.1967,8.9591e-05,9.76e-06,0.0,0 STARLINK-5019,1 55407U 23014S   24145.57833245  .00000976  00000-0  89591-4 0  9992,2 55407  69.9999 273.7890 0002975 268.8851  91.1967 14.98338792 74076,6950.166,96.106,574.098,569.963,0.0
55407.0,STARLINK-5019,PAYLOAD,2024-05-24 18:41:11,14.98345951,0.000288,70.0003,273.285,267.599,92.4839,0.00018092,2.067e-05,0.0,0 STARLINK-5019,1 55407U 23014S   24145.77860548  .00002067  00000-0  18092-3 0  9990,2 55407  70.0003 273.2850 0002880 267.5990  92.4839 14.98345951 73167,6950.144,96.106,574.01,570.007,0.0
55407.0,STARLINK-5019,PAYLOAD,2024-05-25 12:18:41,14.98321957,0.0003202,70.0015,271.4344,266.4445,93.6348,-0.00011137,-1.421e-05,0.0,0 STARLINK-5019,1 55407U 23014S   24146.51298042 -.00001421  00000-0 -11137-3 0  9995,2 55407  70.0015 271.4344 0003202 266.4445  93.6348 14.98321957 73270,6950.218,96.108,574.308,569.857,0.0
55407.0,STARLINK-5019,PAYLOAD,2024-05-25 13:54:49,14.98322586,0.0003109,70.0015,271.2661,260.0836,99.9972,-0.00010283,-1.319e-05,0.0,0 STARLINK-5019,1 55407U 23014S   24146.57974006 -.00001319  00000-0 -10283-3 0  9999,2 55407  70.0015 271.2661 0003109 260.0836  99.9972 14.98322586 74227,6950.216,96.107,574.242,569.92,0.0
55407.0,STARLINK-5019,PAYLOAD,2024-05-26 12:20:42,14.98335069,0.0003398,69.9992,268.9083,271.5909,88.4861,3.4086e-05,3.14e-06,0.0,0 STARLINK-5019,1 55407U 23014S   24147.51437784  .00000314  00000-0  34086-4 0  9991,2 55407  69.9992 268.9083 0003398 271.5909  88.4861 14.98335069 73428,6950.177,96.107,574.404,569.681,0.0
55407.0,STARLINK-5019,PAYLOAD,2024-05-26 18:45:13,14.98363573,0.0002988,69.9995,268.2354,264.1079,95.9739,-0.00038103,-4.64e-05,0.0,0 STARLINK-5019,1 55407U 23014S   24147.78140154 -.00004640  00000-0 -38103-3 0  9993,2 55407  69.9995 268.2354 0002988 264.1079  95.9739 14.98363573 73467,6950.089,96.105,574.031,569.877,0.0
55407.0,STARLINK-5019,PAYLOAD,2024-05-27 01:09:46,14.98339383,0.000318,69.9996,267.5623,266.2244,93.8552,-5.1879e-06,-1.55e-06,0.0,0 STARLINK-5019,1 55407U 23014S   24148.04845213 -.00000155  00000-0 -51879-5 0  9995,2 55407  69.9996 267.5623 0003180 266.2244  93.8552 14.98339383 73508,6950.164,96.106,574.239,569.819,0.0
55407.0,STARLINK-5019,PAYLOAD,2024-05-27 12:22:43,14.98325349,0.0003018,70.0001,266.3837,258.289,101.793,0.00026915,3.12e-05,0.0,0 STARLINK-5019,1 55407U 23014S   24148.51578000  .00003120  00000-0  26915-3 0  9998,2 55407  70.0001 266.3837 0003018 258.2890 101.7930 14.98325349 73573,6950.207,96.107,574.17,569.975,0.0
55407.0,STARLINK-5019,PAYLOAD,2024-05-27 13:58:51,14.98325584,0.0003062,69.9997,266.2146,262.0619,98.0192,0.00026715,3.096e-05,0.0,0 STARLINK-5019,1 55407U 23014S   24148.58254028  .00003096  00000-0  26715-3 0  9996,2 55407  69.9997 266.2146 0003062 262.0619  98.0192 14.98325584 74522,6950.207,96.107,574.2,569.943,0.0
55407.0,STARLINK-5019,PAYLOAD,2024-05-27 17:11:07,14.98329643,0.000295,70.0017,265.8793,256.6828,103.4003,0.00024326,2.811e-05,0.0,0 STARLINK-5019,1 55407U 23014S   24148.71605925  .00002811  00000-0  24326-3 0  9997,2 55407  70.0017 265.8793 0002950 256.6828 103.4003 14.98329643 74541,6950.194,96.107,574.109,570.009,0.0
55407.0,STARLINK-5019,PAYLOAD,2024-05-28 01:11:47,14.98339873,0.000307,70.0004,265.0372,258.1422,101.9393,8.1429e-06,4e-08,0.0,0 STARLINK-5019,1 55407U 23014S   24149.04985384  .00000004  00000-0  81429-5 0  9995,2 55407  70.0004 265.0372 0003070 258.1422 101.9393 14.98339873 73655,6950.162,96.106,574.161,569.894,0.0
55407.0,STARLINK-5019,PAYLOAD,2024-05-28 14:00:51,14.98337431,0.000295,70.0005,263.6911,256.8722,103.2108,0.00010912,1.209e-05,0.0,0 STARLINK-5019,1 55407U 23014S   24149.58393343  .00001209  00000-0  10912-3 0  9997,2 55407  70.0005 263.6911 0002950 256.8722 103.2108 14.98337431 74673,6950.17,96.107,574.085,569.985,0.0
55407.0,STARLINK-5019,PAYLOAD,2024-05-28 17:13:07,14.98337884,0.0003053,70.0001,263.3543,262.1959,97.8853,9.3277e-05,1.02e-05,0.0,0 STARLINK-5019,1 55407U 23014S   24149.71745277  .00001020  00000-0  93277-4 0  9996,2 55407  70.0001 263.3543 0003053 262.1959  97.8853 14.98337884 74693,6950.169,96.106,574.155,569.912,0.0
55407.0,STARLINK-5019,PAYLOAD,2024-05-29 10:50:36,14.98331003,0.0003057,70.0001,261.5036,262.8734,97.2078,4.5572e-05,4.51e-06,0.0,0 STARLINK-5019,1 55407U 23014S   24150.45181594  .00000451  00000-0  45572-4 0  9997,2 55407  70.0001 261.5036 0003057 262.8734  97.2078 14.98331003 73860,6950.19,96.107,574.179,569.93,0.0
55407.0,STARLINK-5019,PAYLOAD,2024-05-29 14:02:53,14.98331084,0.0003073,70.0,261.1669,263.0451,97.0358,4.2599e-05,4.15e-06,0.0,0 STARLINK-5019,1 55407U 23014S   24150.58533623  .00000415  00000-0  42599-4 0  9991,2 55407  70.0000 261.1669 0003073 263.0451  97.0358 14.98331084 74829,6950.19,96.107,574.19,569.919,0.0
55407.0,STARLINK-5019,PAYLOAD,2024-05-29 17:15:09,14.98331515,0.0003079,70.0,260.8303,263.3083,96.7726,4.0149e-05,3.86e-06,0.0,0 STARLINK-5019,1 55407U 23014S   24150.71885564  .00000386  00000-0  40149-4 0  9996,2 55407  70.0000 260.8303 0003079 263.3083  96.7726 14.98331515 74846,6950.188,96.107,574.193,569.913,0.0
55407.0,STARLINK-5019,PAYLOAD,2024-05-30 12:28:45,14.9833645,0.0003142,70.0,258.8096,264.9267,95.1533,5.4605e-05,5.59e-06,0.0,0 STARLINK-5019,1 55407U 23014S   24151.51997111  .00000559  00000-0  54605-4 0  9991,2 55407  70.0000 258.8096 0003142 264.9267  95.1533 14.98336450 74026,6950.173,96.107,574.222,569.854,0.0
55407.0,STARLINK-5019,PAYLOAD,2024-05-30 17:17:09,14.98340051,0.0003103,69.9999,258.3045,265.0143,95.0662,9.5908e-05,1.052e-05,0.0,0 STARLINK-5019,1 55407U 23014S   24151.72024692  .00001052  00000-0  95908-4 0  9999,2 55407  69.9999 258.3045 0003103 265.0143  95.0662 14.98340051 74991,6950.162,96.106,574.183,569.87,0.0
55407.0,STARLINK-5019,PAYLOAD,2024-05-31 12:30:46,14.9833253,0.0002947,70.0003,256.2847,261.4356,98.6469,0.00011528,1.283e-05,0.0,0 STARLINK-5019,1 55407U 23014S   24152.52136982  .00001283  00000-0  11528-3 0  9995,2 55407  70.0003 256.2847 0002947 261.4356  98.6469 14.98332530 74175,6950.185,96.107,574.098,570.002,0.0
55407.0,STARLINK-5019,PAYLOAD,2024-05-31 14:06:54,14.98332465,0.0002949,70.0003,256.1164,261.3893,98.6932,0.00011217,1.246e-05,0.0,0 STARLINK-5019,1 55407U 23014S   24152.58812990  .00001246  00000-0  11217-3 0  9995,2 55407  70.0003 256.1164 0002949 261.3893  98.6932 14.98332465 75121,6950.185,96.107,574.1,570.001,0.0
